ADRAS-J                 
1 58992U 24034A   24143.32343524  .00005186  00000+0  48549-3 0  9998
2 58992  98.2101 115.1797 0045513 132.5282 227.9794 14.93758768 14001
